IRIDIUM 57              
1 25273U 98019B   24167.82169265  .00000608  00000+0  20571-3 0  9996
2 25273  86.3949 298.6931 0002110  93.4346 266.7091 14.35249054372225
IRIDIUM 63              
1 25286U 98021B   24167.91556136  .00000557  00000+0  18578-3 0  9997
2 25286  86.3996 235.5490 0002320  90.0323 270.1139 14.35800808371278
IRIDIUM 69              
1 25319U 98026A   24167.77936756  .00000705  00000+0  21739-3 0  9991
2 25319  86.3982 249.9973 0004026 123.8299 236.3283 14.40039023370314
IRIDIUM 71              
1 25320U 98026B   24167.91863675  .00000655  00000+0  20026-3 0  9990
2 25320  86.3985 244.6994 0002191 152.4614 207.6701 14.40351945370859
IRIDIUM 73              
1 25344U 98032C   24167.85261275  .00000775  00000+0  19260-3 0  9995
2 25344  86.4444 202.1774 0002716 103.3040 256.8467 14.50578565377438
IRIDIUM 82              
1 25467U 98051A   24167.81681376  .00017950  00000+0  90571-3 0  9993
2 25467  86.3737 286.4216 0126172 225.1180 133.9762 15.10207293368285
IRIDIUM 2               
1 25527U 98066A   24167.87704104  .00539634  11814-3  13540-2 0  9994
2 25527  85.4932 303.8526 0007636 260.6104  99.4316 15.95633620407724
